{
  "type": "FeatureCollection",
  "features": [
    {
      "type": "Feature",
      "properties": {
        "norad_id": 41866,
        "name": "GOES 16",
        "group": "weather",
        "lat": -0.01151574765531239,
        "lon": 76.18793843958953,
        "alt_km": 35799.11811593616,
        "timestamp": "2025-12-24T05:51:19.248819+00:00",
        "meta_object_name": "GOES 16",
        "meta_object_id": "2016-071A",
        "meta_epoch": "2025-12-23T21:11:28.130208",
        "meta_mean_motion": 1.00271831,
        "meta_eccentricity": 0.00031304,
        "meta_inclination": 0.0743,
        "meta_ra_of_asc_node": 102.1527,
        "meta_arg_of_pericenter": 164.2103,
        "meta_mean_anomaly": 39.506,
        "meta_ephemeris_type": 0,
        "meta_classification_type": "U",
        "meta_norad_cat_id": 41866,
        "meta_element_set_no": 999,
        "meta_rev_at_epoch": 3334,
        "meta_bstar": 0,
        "meta_mean_motion_dot": -7e-07,
        "meta_mean_motion_ddot": 0,
        "tle_line1": "1 41866U 16071A   25357.88296447 -.00000070  00000+0  00000+0 0  9996",
        "tle_line2": "2 41866   0.0743 102.1527 0003130 164.2103  39.5060  1.00271831 33342"
      },
      "geometry": {
        "type": "Point",
        "coordinates": [
          76.18793843958953,
          -0.01151574765531239
        ]
      }
    },
    {
      "type": "Feature",
      "properties": {
        "norad_id": 41882,
        "name": "FENGYUN 4A",
        "group": "weather",
        "lat": -1.2825105112510615,
        "lon": -55.48136827267847,
        "alt_km": 35784.74275301463,
        "timestamp": "2025-12-24T05:51:19.248831+00:00",
        "meta_object_name": "FENGYUN 4A",
        "meta_object_id": "2016-077A",
        "meta_epoch": "2025-12-23T08:35:04.981056",
        "meta_mean_motion": 1.00264066,
        "meta_eccentricity": 0.00045686,
        "meta_inclination": 1.8742,
        "meta_ra_of_asc_node": 82.3014,
        "meta_arg_of_pericenter": 143.3346,
        "meta_mean_anomaly": 118.943,
        "meta_ephemeris_type": 0,
        "meta_classification_type": "U",
        "meta_norad_cat_id": 41882,
        "meta_element_set_no": 999,
        "meta_rev_at_epoch": 3316,
        "meta_bstar": 0,
        "meta_mean_motion_dot": -3.37e-06,
        "meta_mean_motion_ddot": 0,
        "tle_line1": "1 41882U 16077A   25357.35769654 -.00000337  00000+0  00000+0 0  9993",
        "tle_line2": "2 41882   1.8742  82.3014 0004568 143.3346 118.9430  1.00264066 33166"
      },
      "geometry": {
        "type": "Point",
        "coordinates": [
          -55.48136827267847,
          -1.2825105112510615
        ]
      }
    },
    {
      "type": "Feature",
      "properties": {
        "norad_id": 41884,
        "name": "CYGFM05",
        "group": "weather",
        "lat": 24.00777221508754,
        "lon": 112.35698443480238,
        "alt_km": 423.8655406966145,
        "timestamp": "2025-12-24T05:51:19.248843+00:00",
        "meta_object_name": "CYGFM05",
        "meta_object_id": "2016-078A",
        "meta_epoch": "2025-12-23T23:05:05.649216",
        "meta_mean_motion": 15.48043341,
        "meta_eccentricity": 0.00106472,
        "meta_inclination": 34.9605,
        "meta_ra_of_asc_node": 333.8045,
        "meta_arg_of_pericenter": 280.0192,
        "meta_mean_anomaly": 79.9328,
        "meta_ephemeris_type": 0,
        "meta_classification_type": "U",
        "meta_norad_cat_id": 41884,
        "meta_element_set_no": 999,
        "meta_rev_at_epoch": 50150,
        "meta_bstar": 0.00036835021,
        "meta_mean_motion_dot": 0.00019921,
        "meta_mean_motion_ddot": 0,
        "tle_line1": "1 41884U 16078A   25357.96187094  .00019921  00000+0  36835-3 0  9992",
        "tle_line2": "2 41884  34.9605 333.8045 0010647 280.0192  79.9328 15.48043341501502"
      },
      "geometry": {
        "type": "Point",
        "coordinates": [
          112.35698443480238,
          24.00777221508754
        ]
      }
    },
    {
      "type": "Feature",
      "properties": {
        "norad_id": 41885,
        "name": "CYGFM04",
        "group": "weather",
        "lat": 26.54983152345171,
        "lon": 80.6903597226616,
        "alt_km": 415.5070243964674,
        "timestamp": "2025-12-24T05:51:19.248854+00:00",
        "meta_object_name": "CYGFM04",
        "meta_object_id": "2016-078B",
        "meta_epoch": "2025-12-23T21:34:42.992544",
        "meta_mean_motion": 15.50823719,
        "meta_eccentricity": 0.00093356,
        "meta_inclination": 34.9353,
        "meta_ra_of_asc_node": 308.6658,
        "meta_arg_of_pericenter": 304.0277,
        "meta_mean_anomaly": 55.9558,
        "meta_ephemeris_type": 0,
        "meta_classification_type": "U",
        "meta_norad_cat_id": 41885,
        "meta_element_set_no": 999,
        "meta_rev_at_epoch": 50167,
        "meta_bstar": 0.00038094035,
        "meta_mean_motion_dot": 0.00022735,
        "meta_mean_motion_ddot": 0,
        "tle_line1": "1 41885U 16078B   25357.89910871  .00022735  00000+0  38094-3 0  9998",
        "tle_line2": "2 41885  34.9353 308.6658 0009335 304.0277  55.9558 15.50823719501671"
      },
      "geometry": {
        "type": "Point",
        "coordinates": [
          80.6903597226616,
          26.54983152345171
        ]
      }
    },
    {
      "type": "Feature",
      "properties": {
        "norad_id": 41886,
        "name": "CYGFM02",
        "group": "weather",
        "lat": -11.09412072366063,
        "lon": 140.88655777768258,
        "alt_km": 412.76991759794873,
        "timestamp": "2025-12-24T05:51:19.248865+00:00",
        "meta_object_name": "CYGFM02",
        "meta_object_id": "2016-078C",
        "meta_epoch": "2025-12-23T22:49:29.668512",
        "meta_mean_motion": 15.52238864,
        "meta_eccentricity": 0.00109258,
        "meta_inclination": 34.9441,
        "meta_ra_of_asc_node": 306.5044,
        "meta_arg_of_pericenter": 305.8769,
        "meta_mean_anomaly": 54.0939,
        "meta_ephemeris_type": 0,
        "meta_classification_type": "U",
        "meta_norad_cat_id": 41886,
        "meta_element_set_no": 999,
        "meta_rev_at_epoch": 50181,
        "meta_bstar": 0.00038103343,
        "meta_mean_motion_dot": 0.00023948,
        "meta_mean_motion_ddot": 0,
        "tle_line1": "1 41886U 16078C   25357.95103783  .00023948  00000+0  38103-3 0  9990",
        "tle_line2": "2 41886  34.9441 306.5044 0010925 305.8769  54.0939 15.52238864501810"
      },
      "geometry": {
        "type": "Point",
        "coordinates": [
          140.88655777768258,
          -11.09412072366063
        ]
      }
    },
    {
      "type": "Feature",
      "properties": {
        "norad_id": 41887,
        "name": "CYGFM01",
        "group": "weather",
        "lat": -13.100011686081695,
        "lon": 173.69587465705933,
        "alt_km": 418.8676432946786,
        "timestamp": "2025-12-24T05:51:19.248875+00:00",
        "meta_object_name": "CYGFM01",
        "meta_object_id": "2016-078D",
        "meta_epoch": "2025-12-23T22:47:33.391392",
        "meta_mean_motion": 15.48633312,
        "meta_eccentricity": 0.00104425,
        "meta_inclination": 34.9435,
        "meta_ra_of_asc_node": 336.1536,
        "meta_arg_of_pericenter": 272.1643,
        "meta_mean_anomaly": 87.7883,
        "meta_ephemeris_type": 0,
        "meta_classification_type": "U",
        "meta_norad_cat_id": 41887,
        "meta_element_set_no": 999,
        "meta_rev_at_epoch": 50144,
        "meta_bstar": 0.00037592127,
        "meta_mean_motion_dot": 0.00020759,
        "meta_mean_motion_ddot": 0,
        "tle_line1": "1 41887U 16078D   25357.94969203  .00020759  00000+0  37592-3 0  9995",
        "tle_line2": "2 41887  34.9435 336.1536 0010442 272.1643  87.7883 15.48633312501442"
      },
      "geometry": {
        "type": "Point",
        "coordinates": [
          173.69587465705933,
          -13.100011686081695
        ]
      }
    },
    {
      "type": "Feature",
      "properties": {
        "norad_id": 41888,
        "name": "CYGFM08",
        "group": "weather",
        "lat": -28.887611165457432,
        "lon": -95.11145184991643,
        "alt_km": 410.925432103656,
        "timestamp": "2025-12-24T05:51:19.248886+00:00",
        "meta_object_name": "CYGFM08",
        "meta_object_id": "2016-078E",
        "meta_epoch": "2025-12-23T22:22:21.359424",
        "meta_mean_motion": 15.49868196,
        "meta_eccentricity": 0.00116538,
        "meta_inclination": 34.9465,
        "meta_ra_of_asc_node": 319.1281,
        "meta_arg_of_pericenter": 295.3222,
        "meta_mean_anomaly": 64.6293,
        "meta_ephemeris_type": 0,
        "meta_classification_type": "U",
        "meta_norad_cat_id": 41888,
        "meta_element_set_no": 999,
        "meta_rev_at_epoch": 50167,
        "meta_bstar": 0.00037459369,
        "meta_mean_motion_dot": 0.00021624,
        "meta_mean_motion_ddot": 0,
        "tle_line1": "1 41888U 16078E   25357.93219166  .00021624  00000+0  37459-3 0  9995",
        "tle_line2": "2 41888  34.9465 319.1281 0011653 295.3222  64.6293 15.49868196501674"
      },
      "geometry": {
        "type": "Point",
        "coordinates": [
          -95.11145184991643,
          -28.887611165457432
        ]
      }
    }
  ]
}